{
  "norad_id": 52145,
  "name": "MERIDIAN 10",
  "history": [
    {
      "epoch": "2026-03-28T05:17:35.037888Z",
      "apogee_km": 38139.40466011061,
      "perigee_km": 2215.9641456926356,
      "latitude_deg": -3.242685533214985e-06,
      "longitude_deg": -115.55086813445274,
      "height_km": 7567.464801786889,
      "semi_major_axis_km": 26555.821402901624,
      "eccentricity": 0.676376,
      "inclination_deg": 62.6701,
      "raan_deg": 149.4655,
      "arg_perigee_deg": 272.9242,
      "mean_anomaly_deg": 17.7942,
      "mean_motion_rev_day": 2.00614885
    },
    {
      "epoch": "2026-03-28T17:15:21.547296Z",
      "apogee_km": 38139.848261026666,
      "perigee_km": 2215.508013551137,
      "latitude_deg": -6.301205928062454e-05,
      "longitude_deg": 64.4611704632937,
      "height_km": 7566.773459009838,
      "semi_major_axis_km": 26555.815137288904,
      "eccentricity": 0.6763931,
      "inclination_deg": 62.6694,
      "raan_deg": 149.4122,
      "arg_perigee_deg": 272.9236,
      "mean_anomaly_deg": 17.793,
      "mean_motion_rev_day": 2.00614956
    },
    {
      "epoch": "2026-03-29T17:10:54.736320Z",
      "apogee_km": 38140.42272489943,
      "perigee_km": 2214.9219009402323,
      "latitude_deg": 5.8759997160224696e-05,
      "longitude_deg": 64.48384410831879,
      "height_km": 7565.5043509861225,
      "semi_major_axis_km": 26555.80931291983,
      "eccentricity": 0.6764151,
      "inclination_deg": 62.6692,
      "raan_deg": 149.3053,
      "arg_perigee_deg": 272.9238,
      "mean_anomaly_deg": 17.7915,
      "mean_motion_rev_day": 2.00615022
    },
    {
      "epoch": "2026-03-29T17:10:54.751008Z",
      "apogee_km": 38140.40673076917,
      "perigee_km": 2214.9371890865596,
      "latitude_deg": -8.184890402706499e-05,
      "longitude_deg": 64.48500960856452,
      "height_km": 7565.547491212365,
      "semi_major_axis_km": 26555.80895992787,
      "eccentricity": 0.67641452,
      "inclination_deg": 62.6694,
      "raan_deg": 149.3066,
      "arg_perigee_deg": 272.9235,
      "mean_anomaly_deg": 17.7916,
      "mean_motion_rev_day": 2.00615026
    },
    {
      "epoch": "2026-03-30T05:08:41.382240Z",
      "apogee_km": 38140.70065484916,
      "perigee_km": 2214.6349696972056,
      "latitude_deg": 0.00010625347325303997,
      "longitude_deg": -115.50318418721315,
      "height_km": 7565.040690586062,
      "semi_major_axis_km": 26555.804812273185,
      "eccentricity": 0.67642585,
      "inclination_deg": 62.6687,
      "raan_deg": 149.254,
      "arg_perigee_deg": 272.9225,
      "mean_anomaly_deg": 17.7914,
      "mean_motion_rev_day": 2.00615073
    },
    {
      "epoch": "2026-03-31T05:04:14.484000Z",
      "apogee_km": 38141.21631314755,
      "perigee_km": 2214.095484464414,
      "latitude_deg": -0.00012168631643355602,
      "longitude_deg": -115.4803181854513,
      "height_km": 7563.665492290479,
      "semi_major_axis_km": 26555.792898805983,
      "eccentricity": 0.67644602,
      "inclination_deg": 62.6701,
      "raan_deg": 149.1483,
      "arg_perigee_deg": 272.9222,
      "mean_anomaly_deg": 17.7904,
      "mean_motion_rev_day": 2.00615208
    },
    {
      "epoch": "2026-04-02T04:55:20.633088Z",
      "apogee_km": 38142.17110198022,
      "perigee_km": 2213.0986896939585,
      "latitude_deg": 5.63022156269816e-05,
      "longitude_deg": -115.43676716816444,
      "height_km": 7561.152363246253,
      "semi_major_axis_km": 26555.771895837086,
      "eccentricity": 0.6764833,
      "inclination_deg": 62.6698,
      "raan_deg": 148.936,
      "arg_perigee_deg": 272.9215,
      "mean_anomaly_deg": 17.7888,
      "mean_motion_rev_day": 2.00615446
    }
  ]
}